[{"OBJECT_NAME":"NUSAT-43 (R DIENG-KUNTZ)","OBJECT_ID":"2023-084AN","EPOCH":"2026-03-08T21:55:35.625792","MEAN_MOTION":15.74780826,"ECCENTRICITY":0.00059701,"INCLINATION":97.4369,"RA_OF_ASC_NODE":210.0765,"ARG_OF_PERICENTER":240.2474,"MEAN_ANOMALY":119.8197,"EPHEMERIS_TYPE":0,"CLASSIFICATION_TYPE":"U","NORAD_CAT_ID":56968,"ELEMENT_SET_NO":999,"REV_AT_EPOCH":15344,"BSTAR":0.0011289476,"MEAN_MOTION_DOT":0.00168767,"MEAN_MOTION_DDOT":0},{"OBJECT_NAME":"STARLINK-11185 [DTC]","OBJECT_ID":"2025-008B","EPOCH":"2026-03-08T14:06:43.260480","MEAN_MOTION":15.70895886,"ECCENTRICITY":0.00019511,"INCLINATION":43.001,"RA_OF_ASC_NODE":132.5682,"ARG_OF_PERICENTER":272.0366,"MEAN_ANOMALY":88.0279,"EPHEMERIS_TYPE":0,"CLASSIFICATION_TYPE":"U","NORAD_CAT_ID":62588,"ELEMENT_SET_NO":999,"REV_AT_EPOCH":6594,"BSTAR":0.0018663884,"MEAN_MOTION_DOT":0.00246864,"MEAN_MOTION_DDOT":0}]
