NUSAT-43 (R DIENG-KUNTZ)
1 56968U 23084AN  26067.91360678  .00168767  00000+0  11289-2 0  9999
2 56968  97.4369 210.0765 0005970 240.2474 119.8197 15.74780826153440
STARLINK-11185 [DTC]    
1 62588U 25008B   26067.58800070  .00246864  00000+0  18664-2 0  9999
2 62588  43.0010 132.5682 0001951 272.0366  88.0279 15.70895886 65943
